start=new Date('2021-12-08T00:00:00.000Z').valueOf();
sats=[{"COUNTRY_CODE":"US","REF_FRAME":"TEME","MEAN_ELEMENT_THEORY":"SGP4","DECAY_DATE":null,"RCS_SIZE":"LARGE","SITE":"AFETR","EPOCH":"2021-12-07T21:13:10.910784","TIME_SYSTEM":"UTC","REV_AT_EPOCH":"6574","RA_OF_ASC_NODE":"287.4301","MEAN_ANOMALY":"298.6626","OBJECT_ID":"2020-070AP","OBJECT_NAME":"STARLINK-1747","EPHEMERIS_TYPE":"0","MEAN_MOTION_DDOT":"0.0000000000000","LAUNCH_DATE":"2020-10-06","APOAPSIS":"548.531","TLE_LINE2":"2 46569  53.0546 287.4301 0001900  61.4554 298.6626 15.06399519 65744","CENTER_NAME":"EARTH","FILE":"3235143","OBJECT_TYPE":"PAYLOAD","ECCENTRICITY":"0.00019000","TLE_LINE1":"1 46569U 20070AP  21341.88415406  .00000862  00000-0  76751-4 0  9992","SEMIMAJOR_AXIS":"6925.350","NORAD_CAT_ID":"46569","GP_ID":"191298676","ELEMENT_SET_NO":"999","MEAN_MOTION_DOT":"0.00000862","CLASSIFICATION_TYPE":"U","PERIOD":"95.592","PERIAPSIS":"545.899","ARG_OF_PERICENTER":"61.4554","BSTAR":"0.00007675100000","INCLINATION":"53.0546","MEAN_MOTION":"15.06399519"},{"ECCENTRICITY":"0.00020300","TLE_LINE1":"1 46570U 20070AQ  21341.85835274  .00000088  00000-0  24802-4 0  9990","SEMIMAJOR_AXIS":"6925.362","NORAD_CAT_ID":"46570","GP_ID":"191299925","ELEMENT_SET_NO":"999","OBJECT_TYPE":"PAYLOAD","ARG_OF_PERICENTER":"56.0813","BSTAR":"0.00002480200000","INCLINATION":"53.0549","MEAN_MOTION":"15.06395542","MEAN_MOTION_DOT":"0.00000088","CLASSIFICATION_TYPE":"U","PERIOD":"95.592","PERIAPSIS":"545.821","EPOCH":"2021-12-07T20:36:01.676736","TIME_SYSTEM":"UTC","REV_AT_EPOCH":"6573","RA_OF_ASC_NODE":"287.5363","MEAN_ANOMALY":"304.0369","OBJECT_ID":"2020-070AQ","OBJECT_NAME":"STARLINK-1748","COUNTRY_CODE":"US","REF_FRAME":"TEME","MEAN_ELEMENT_THEORY":"SGP4","DECAY_DATE":null,"RCS_SIZE":"LARGE","SITE":"AFETR","LAUNCH_DATE":"2020-10-06","TLE_LINE2":"2 46570  53.0549 287.5363 0002030  56.0813 304.0369 15.06395542 65738","APOAPSIS":"548.633","CENTER_NAME":"EARTH","FILE":"3235143","EPHEMERIS_TYPE":"0","MEAN_MOTION_DDOT":"0.0000000000000"},{"INCLINATION":"53.0563","MEAN_MOTION":"15.43066531","ARG_OF_PERICENTER":"46.0106","BSTAR":"0.00944780000000","PERIAPSIS":"435.776","MEAN_MOTION_DOT":"0.00449169","PERIOD":"93.321","CLASSIFICATION_TYPE":"U","GP_ID":"191299678","ELEMENT_SET_NO":"999","TLE_LINE1":"1 46571U 20070AR  21341.91058725  .00449169  00000-0  94478-2 0  9997","ECCENTRICITY":"0.00018950","SEMIMAJOR_AXIS":"6815.202","NORAD_CAT_ID":"46571","OBJECT_TYPE":"PAYLOAD","TLE_LINE2":"2 46571  53.0563 284.7498 0001895  46.0106 314.1055 15.43066531 65788","APOAPSIS":"438.359","CENTER_NAME":"EARTH","FILE":"3235143","LAUNCH_DATE":"2020-10-06","EPHEMERIS_TYPE":"0","MEAN_MOTION_DDOT":"0.0000000000000","MEAN_ANOMALY":"314.1055","OBJECT_ID":"2020-070AR","OBJECT_NAME":"STARLINK-1753","EPOCH":"2021-12-07T21:51:14.738400","REV_AT_EPOCH":"6578","TIME_SYSTEM":"UTC","RA_OF_ASC_NODE":"284.7498","RCS_SIZE":"LARGE","DECAY_DATE":null,"SITE":"AFETR","COUNTRY_CODE":"US","REF_FRAME":"TEME","MEAN_ELEMENT_THEORY":"SGP4"},{"DECAY_DATE":null,"RCS_SIZE":"LARGE","SITE":"AFETR","COUNTRY_CODE":"US","MEAN_ELEMENT_THEORY":"SGP4","REF_FRAME":"TEME","OBJECT_ID":"2020-070AS","MEAN_ANOMALY":"305.1109","OBJECT_NAME":"STARLINK-1531","EPOCH":"2021-12-07T07:49:03.553248","RA_OF_ASC_NODE":"309.9486","REV_AT_EPOCH":"6537","TIME_SYSTEM":"UTC","EPHEMERIS_TYPE":"0","MEAN_MOTION_DDOT":"0.0000000000000","CENTER_NAME":"EARTH","TLE_LINE2":"2 46572  53.0556 309.9486 0001805  55.0049 305.1109 15.06398096 65373","APOAPSIS":"548.469","FILE":"3234816","LAUNCH_DATE":"2020-10-06","OBJECT_TYPE":"PAYLOAD","ELEMENT_SET_NO":"999","GP_ID":"191270712","SEMIMAJOR_AXIS":"6925.354","TLE_LINE1":"1 46572U 20070AS  21341.32573557  .00001562  00000-0  12378-3 0  9999","ECCENTRICITY":"0.00018050","NORAD_CAT_ID":"46572","PERIAPSIS":"545.969","CLASSIFICATION_TYPE":"U","PERIOD":"95.592","MEAN_MOTION_DOT":"0.00001562","INCLINATION":"53.0556","MEAN_MOTION":"15.06398096","ARG_OF_PERICENTER":"55.0049","BSTAR":"0.00012378000000"},{"INCLINATION":"53.0549","MEAN_MOTION":"15.06392090","ARG_OF_PERICENTER":"54.2733","BSTAR":"-0.00002435700000","PERIAPSIS":"545.984","MEAN_MOTION_DOT":"-0.00000644","CLASSIFICATION_TYPE":"U","PERIOD":"95.593","GP_ID":"191299177","ELEMENT_SET_NO":"999","ECCENTRICITY":"0.00018100","TLE_LINE1":"1 46573U 20070AT  21341.90028600 -.00000644  00000-0 -24357-4 0  9991","SEMIMAJOR_AXIS":"6925.373","NORAD_CAT_ID":"46573","OBJECT_TYPE":"PAYLOAD","APOAPSIS":"548.491","TLE_LINE2":"2 46573  53.0549 292.3571 0001810  54.2733 305.8424 15.06392090 65671","CENTER_NAME":"EARTH","FILE":"3235143","LAUNCH_DATE":"2020-10-06","EPHEMERIS_TYPE":"0","MEAN_MOTION_DDOT":"0.0000000000000","MEAN_ANOMALY":"305.8424","OBJECT_ID":"2020-070AT","OBJECT_NAME":"STARLINK-1650","EPOCH":"2021-12-07T21:36:24.710400","REV_AT_EPOCH":"6567","TIME_SYSTEM":"UTC","RA_OF_ASC_NODE":"292.3571","DECAY_DATE":null,"RCS_SIZE":"LARGE","SITE":"AFETR","COUNTRY_CODE":"US","REF_FRAME":"TEME","MEAN_ELEMENT_THEORY":"SGP4"},{"INCLINATION":"53.0546","MEAN_MOTION":"15.06398156","ARG_OF_PERICENTER":"61.6561","BSTAR":"0.00014625000000","PERIAPSIS":"545.958","CLASSIFICATION_TYPE":"U","PERIOD":"95.592","MEAN_MOTION_DOT":"0.00001897","ELEMENT_SET_NO":"999","GP_ID":"191271213","SEMIMAJOR_AXIS":"6925.354","ECCENTRICITY":"0.00018210","TLE_LINE1":"1 46574U 20070AU  21341.28840439  .00001897  00000-0  14625-3 0  9990","NORAD_CAT_ID":"46574","OBJECT_TYPE":"PAYLOAD","CENTER_NAME":"EARTH","TLE_LINE2":"2 46574  53.0546 295.1145 0001821  61.6561 298.4612 15.06398156 65585","APOAPSIS":"548.480","FILE":"3234816","LAUNCH_DATE":"2020-10-06","EPHEMERIS_TYPE":"0","MEAN_MOTION_DDOT":"0.0000000000000","OBJECT_ID":"2020-070AU","MEAN_ANOMALY":"298.4612","OBJECT_NAME":"STARLINK-1660","EPOCH":"2021-12-07T06:55:18.139296","RA_OF_ASC_NODE":"295.1145","REV_AT_EPOCH":"6558","TIME_SYSTEM":"UTC","RCS_SIZE":"LARGE","DECAY_DATE":null,"SITE":"AFETR","COUNTRY_CODE":"US","MEAN_ELEMENT_THEORY":"SGP4","REF_FRAME":"TEME"},{"MEAN_MOTION":"15.06392962","INCLINATION":"53.0543","BSTAR":"0.00000947970000","ARG_OF_PERICENTER":"55.1333","PERIAPSIS":"545.780","MEAN_MOTION_DOT":"-0.00000141","CLASSIFICATION_TYPE":"U","PERIOD":"95.593","GP_ID":"191271964","ELEMENT_SET_NO":"999","NORAD_CAT_ID":"46575","ECCENTRICITY":"0.00021010","TLE_LINE1":"1 46575U 20070AV  21341.21420823 -.00000141  00000-0  94797-5 0  9997","SEMIMAJOR_AXIS":"6925.370","OBJECT_TYPE":"PAYLOAD","FILE":"3234816","TLE_LINE2":"2 46575  53.0543 270.4428 0002101  55.1333 304.9853 15.06392962 65916","APOAPSIS":"548.690","CENTER_NAME":"EARTH","LAUNCH_DATE":"2020-10-06","MEAN_MOTION_DDOT":"0.0000000000000","EPHEMERIS_TYPE":"0","OBJECT_NAME":"STARLINK-1675","MEAN_ANOMALY":"304.9853","OBJECT_ID":"2020-070AV","REV_AT_EPOCH":"6591","TIME_SYSTEM":"UTC","RA_OF_ASC_NODE":"270.4428","EPOCH":"2021-12-07T05:08:27.591072","SITE":"AFETR","DECAY_DATE":null,"RCS_SIZE":"LARGE","REF_FRAME":"TEME","MEAN_ELEMENT_THEORY":"SGP4","COUNTRY_CODE":"US"},{"NORAD_CAT_ID":"46576","TLE_LINE1":"1 46576U 20070AW  21341.61277245  .00000052  00000-0  22382-4 0  9990","ECCENTRICITY":"0.00018720","SEMIMAJOR_AXIS":"6925.347","GP_ID":"191298927","ELEMENT_SET_NO":"999","OBJECT_TYPE":"PAYLOAD","BSTAR":"0.00002238200000","ARG_OF_PERICENTER":"56.5177","MEAN_MOTION":"15.06400629","INCLINATION":"53.0542","MEAN_MOTION_DOT":"0.00000052","PERIOD":"95.592","CLASSIFICATION_TYPE":"U","PERIAPSIS":"545.915","TIME_SYSTEM":"UTC","REV_AT_EPOCH":"6563","RA_OF_ASC_NODE":"293.6498","EPOCH":"2021-12-07T14:42:23.539680","OBJECT_NAME":"STARLINK-1677","MEAN_ANOMALY":"303.5991","OBJECT_ID":"2020-070AW","REF_FRAME":"TEME","MEAN_ELEMENT_THEORY":"SGP4","COUNTRY_CODE":"US","SITE":"AFETR","DECAY_DATE":null,"RCS_SIZE":"LARGE","LAUNCH_DATE":"2020-10-06","FILE":"3235143","APOAPSIS":"548.508","TLE_LINE2":"2 46576  53.0542 293.6498 0001872  56.5177 303.5991 15.06400629 65632","CENTER_NAME":"EARTH","MEAN_MOTION_DDOT":"0.0000000000000","EPHEMERIS_TYPE":"0"},{"SITE":"AFETR","RCS_SIZE":"LARGE","DECAY_DATE":null,"REF_FRAME":"TEME","MEAN_ELEMENT_THEORY":"SGP4","COUNTRY_CODE":"US","OBJECT_NAME":"STARLINK-1682","MEAN_ANOMALY":"298.7895","OBJECT_ID":"2020-070AX","REV_AT_EPOCH":"6567","TIME_SYSTEM":"UTC","RA_OF_ASC_NODE":"292.3334","EPOCH":"2021-12-07T21:47:00.842496","MEAN_MOTION_DDOT":"0.0000000000000","EPHEMERIS_TYPE":"0","FILE":"3235143","APOAPSIS":"548.683","TLE_LINE2":"2 46577  53.0554 292.3334 0002097  61.3305 298.7895 15.06394480 65677","CENTER_NAME":"EARTH","LAUNCH_DATE":"2020-10-06","OBJECT_TYPE":"PAYLOAD","GP_ID":"191298677","ELEMENT_SET_NO":"999","NORAD_CAT_ID":"46577","TLE_LINE1":"1 46577U 20070AX  21341.90764864  .00001414  00000-0  11381-3 0  9990","ECCENTRICITY":"0.00020970","SEMIMAJOR_AXIS":"6925.365","PERIAPSIS":"545.778","MEAN_MOTION_DOT":"0.00001414","CLASSIFICATION_TYPE":"U","PERIOD":"95.592","MEAN_MOTION":"15.06394480","INCLINATION":"53.0554","BSTAR":"0.00011381000000","ARG_OF_PERICENTER":"61.3305"},{"ELEMENT_SET_NO":"999","GP_ID":"191276404","SEMIMAJOR_AXIS":"6925.333","ECCENTRICITY":"0.00021790","TLE_LINE1":"1 46578U 20070AY  21341.55240816  .00002016  00000-0  15417-3 0  9991","NORAD_CAT_ID":"46578","OBJECT_TYPE":"PAYLOAD","INCLINATION":"53.0547","MEAN_MOTION":"15.06404981","ARG_OF_PERICENTER":"47.9656","BSTAR":"0.00015417000000","PERIAPSIS":"545.689","PERIOD":"95.592","CLASSIFICATION_TYPE":"U","MEAN_MOTION_DOT":"0.00002016","OBJECT_ID":"2020-070AY","MEAN_ANOMALY":"312.1518","OBJECT_NAME":"STARLINK-1683","EPOCH":"2021-12-07T13:15:28.065024","RA_OF_ASC_NODE":"278.9313","REV_AT_EPOCH":"6553","TIME_SYSTEM":"UTC","RCS_SIZE":"LARGE","DECAY_DATE":null,"SITE":"AFETR","COUNTRY_CODE":"US","MEAN_ELEMENT_THEORY":"SGP4","REF_FRAME":"TEME","CENTER_NAME":"EARTH","APOAPSIS":"548.707","TLE_LINE2":"2 46578  53.0547 278.9313 0002179  47.9656 312.1518 15.06404981 65533","FILE":"3234998","LAUNCH_DATE":"2020-10-06","EPHEMERIS_TYPE":"0","MEAN_MOTION_DDOT":"0.0000000000000"}];
